#dP2020  6 27  0  0  0.00000000      96 __u+U ITR00 FIT  IAC
## 2111 518400.00000000   900.00000000 59027 0.0000000000000
+  113   C01C02C03C05C06C07C08C09C10C11C12C13C14C16C19C20C21
+        C22C23C24C25C26C27C28C29C30C32C33C34C35C36C37C45E01
+        E02E03E04E05E07E08E09E11E12E13E14E15E18E19E21E24E25
+        E26E27E30E31E33E36G01G02G04G05G06G07G08G09G10G11G12
+        G13G14G15G16G17G18G19G20G21G22G24G25G26G27G28G29G30
+        G31G32J01J02J03J07R01R02R03R04R05R07R08R09R11R12R13
+        R14R15R16R17R18R19R20R21R23R24R26  0  0  0  0  0  0
++         0 13 13 13  8  9  9  8  8  8  8  8  8  8  8  7  8
++         8  7  8  8  8  8  8 11  8  8  8  8  8  8  8 10  4
++         4  4  4  4  5  5  4  5  4  5  4  5  4  4  4  4  4
++         5  4  5  4  5  4  3  3  3  3  3  3  3  3  3  4  3
++         3  4  3  4  4  3  3  3  3  3  3  3  4  3  4  3  3
++         3  4  8  8  8 15  6  5  5  5  5  6  5  5  5  5  6
++         5  6  6  6  6  6  6  6  5  5  8  0  0  0  0  0  0
%c M  cc GPS ccc cccc cccc cccc cccc ccccc ccccc ccccc ccccc
%c cc cc ccc ccc cccc cccc cccc cccc ccccc ccccc ccccc ccccc
%f  0.0000000  0.000000000  0.00000000000  0.000000000000000
%f  0.0000000  0.000000000  0.00000000000  0.000000000000000
%i    0    0    0    0      0      0      0      0         0
%i    0    0    0    0      0      0      0      0         0
/* INFORMATION & ANALYSIS CENTER (IAC)            RAPID DATA
/* S/V CLOCKS ARE ALIGNED TO GNSS TIME                      
/* G:C1WC2W R:C1PC2P E:C1XC5X C:C2IC6I J:C1CC2S             
/* PCV:IGS14_2101 OL/AL:FES2004  NONE     YN ORB:CoN CLK:CoN
*  2020 06 27 12  0  0.00000000
PC01      0.000000      0.000000      0.000000 999999.999999
PC02   4393.266256  41917.121539   1431.654793    254.355385
PC03 -14800.754496  39501.129916    685.449247    846.456942
PC05  21857.508821  36053.125573   1114.377760   -530.465595
PC06 -10951.836530  37013.954654  17880.798389    764.882918
PC07 -13929.243663  22429.736843 -32717.642834     12.401086
PC08 -24728.308495  29344.370031  17186.069778   -337.713482
PC09  -1379.928574  42285.604893   2640.560997    638.113474
PC10   2699.861252  27799.759148 -31284.577697   -251.453757
PC11 -14647.664941  -4587.262100 -23255.438606   -454.797650
PC12  -6006.673758 -22522.265128 -15337.533525    413.612233
PC13 -10922.061826  29834.889516  27675.509944    512.777797
PC14 -23758.274313 -11072.586998   9697.375875    588.755964
PC16  -8365.204395  38413.061511  15577.903572   -609.280579
PC19  21877.982960   2848.790328 -17044.878907    457.203198
PC20  22076.645912  16954.503166  -1664.707026   -846.079891
PC21  -9118.152407 -21511.571336 -15258.223191   -582.032124
PC22   8940.337186 -13257.946717 -22862.831337   -779.411770
PC23 -19178.355154  16024.466213 -12414.766974   -848.571791
PC24 -18531.758905  -8043.523137  19244.703090   -780.497914
PC25 -26712.533458   6700.056758   4457.033847   -666.293743
PC26   -688.731666 -16690.674710  22355.400310    733.603923
PC27   -276.847848  26955.890416   7231.152857    354.620234
PC28 -11864.586115  23050.917381 -10318.127670   -206.980943
PC29  16271.801308  -6330.330048  21758.906352    248.160801
PC30  11876.600899  14953.193534  20350.173104    338.121868
PC32   9224.811206  21448.791970  15291.118421   -876.611035
PC33 -21962.841571  -2780.596276  17014.898502   -806.507464
PC34 -12118.987816 -14463.485124 -20561.775406   -849.995632
PC35  11187.460665 -23306.163734  10460.375322   -777.072085
PC36  26857.218432  -5942.768178  -4643.868935   -854.970971
PC37   -423.947833  16850.151989 -22215.794045   -858.027075
PC45  19140.013272 -16039.040054  12477.965672    165.881183
PE01  26494.145079   9063.964964  -9586.638319   -886.423519
PE02 -26541.970554  -9012.343669   9503.831531    143.331239
PE03 -19197.425822 -17155.907723  14627.572676   -314.396426
PE04  17172.038853  -3189.579041 -23886.376793   -554.316892
PE05  -9974.226070 -27672.269707  -3330.171608   -368.082274
PE07  -5020.520063  21943.952187  19226.112432   -401.268863
PE08 -16948.777785   3468.291988  24028.559499   6157.825748
PE09   4664.430661 -22023.915173 -19218.090617   6015.043668
PE11  15309.293390 -25157.698790  -2899.888321   3729.406311
PE12  21586.207301 -12789.440972  15686.785052   5734.564839
PE13 -15376.479386  25157.814086   2650.686669    401.904436
PE14  14634.798727   6980.312270  16830.789227  -1064.238864
PE15 -21503.370800  13109.552301 -15555.825518    862.036856
PE18 -20769.619110  -5524.445355 -24562.939770  -1166.044760
PE19  18648.592851  18948.075108 -13002.460268     13.506408
PE21   9951.657653  16183.065997 -22697.153785   -606.916288
PE24  13114.240013 -13891.194958  22603.972070   5380.731881
PE25  -9811.408551 -16205.774324  22751.631766   -512.775556
PE26    138.205360  22269.821248  19496.631301   3025.225738
PE27 -12723.028084  14021.846892 -22748.358017    189.600915
PE30 -27982.289506   3262.910777  -9083.320651   3792.849437
PE31  27809.200864  -3649.398224   9457.728147   -473.019779
PE33  14996.492989   6656.059678  24636.691563   -465.601769
PE36    214.821237 -22432.798818 -19307.729835    541.536650
PG01  11677.548637 -20262.685574 -12489.135097     17.445533
PG02 -21519.492316  13297.744099  -7371.761620   -478.593125
PG04    973.079603 -25765.945366  -6290.026559   -107.706859
PG05 -21519.212277   4014.258354  15038.922977    -15.485672
PG06 -20160.000344   1718.047471 -17177.070845   -295.000252
PG07  -5879.190272 -14855.608323  21466.948670   -314.112090
PG08   7799.902753 -19358.144720  16284.811976    -39.008453
PG09  -8002.388219 -24862.570908   4730.199255   -243.730231
PG10  23603.932877  11783.985791   4128.461762   -383.408366
PG11  11721.368584 -23947.561829   1491.446904   -237.067903
PG12  -3819.373850  14610.000605 -22095.169028    101.017393
PG13 -13114.563891  11834.278350  19685.747623     21.850304
PG14  15157.192054   4431.682343 -21030.661708     -2.855614
PG15  -6019.605458  20565.674508  15132.377118   -221.417650
PG16  20195.717796  -3026.508143  17004.969699   -175.610743
PG17 -13412.051751 -14004.409734 -17751.262254    287.197791
PG18   5056.223806  14893.671857  21387.728035    231.541808
PG19 -14822.320353  -5648.814590 -21611.792229   -139.634172
PG20  16626.669350  14804.120339  14571.998090    527.425242
PG21  16153.152634   5344.342029  21105.116947     16.760284
PG22  11239.936605 -12550.584549 -20296.158630   -775.650974
PG24 -12036.305123  21326.200457 -10005.999417    -14.906055
PG25   7726.829777  17057.791426 -19174.258856     17.234784
PG26  25661.020952   3920.643110   6118.863508    233.038811
PG27  13055.011064  -8664.964953  21244.757732   -331.322318
PG28 -22766.902878 -13288.759725   3060.736272    704.892404
PG29   3211.065583  26327.594973    973.064650   -137.389405
PG30 -15538.066967  -6969.942262  20474.364914   -250.362926
PG31  21464.192370  -2701.339576 -15746.536396    -51.867221
PG32  15076.707232  12343.034342 -18030.815613    307.392902
PJ01 -26033.861047  21753.142922  30113.245206   -280.969103
PJ02 -34344.357476  16033.068586 -14001.772328     -0.785047
PJ03 -20114.347952  31730.341519 -14668.914529     -4.590914
PJ07 -25408.194363  33655.462310     10.310807     -0.003919
PR01  -1945.779934 -16663.687852 -19215.023224     63.694247
PR02 -15664.539720 -20074.745020   -873.092573    433.584817
PR03 -17637.367727  -9925.254767  15542.693186     17.509533
PR04  -9432.291997   5576.647654  23065.330151     54.251273
PR05   4002.710685  18049.429694  17598.910840     53.067306
PR07  17520.494313   9577.699613 -15857.341619    -37.948374
PR08   9512.494625  -5612.023762 -22935.672008    -53.103926
PR09  16624.281145   6274.480044 -18252.376111    140.319339
PR11  21110.490785  -8981.373411  11111.057679    -28.548222
PR12   6263.817171 -11547.169804  21896.910116    142.469428
PR13 -12981.207790  -7653.676749  20569.158137    -40.496477
PR14 -24531.216134    594.286011   7017.135771     52.731011
PR15 -21736.876865   8465.119176 -10303.481291    106.912342
PR16  -5205.178080  11790.390113 -22010.462857     -4.384003
PR17 -11261.828160    212.859850 -22880.319112    336.514880
PR18 -13291.382690  16629.987584 -14085.056956     40.294141
PR19  -9061.217565  23778.237329   1744.231399    -99.797220
PR20   1975.786902  17066.172810  18873.694314   -415.305755
PR21  11517.100491  -1307.882106  22719.515266   -134.230253
PR23   5069.454007 -23455.089304  -8664.699743    314.909682
PR24  -2898.687274 -16633.031850 -19115.680483      4.184783
PR26   -474.586920  20230.005146  15517.953079   -391.803619
EOF
